STARLINK-1480
1 15741C 20038M   21326.13401750  .00006434  00000-0  43104-3 0  3265
2 15741  53.0548  78.1474 0001181  68.6836 350.7734 15.06397878    11
